{
    "links": {
        "self": "http://www.neowsapp.com/rest/v1/neo/54092904?api_key=iIulBulltgU6a56xZRHN4H3l9WmuAYTsLGpBGhQ2"
    },
    "id": "54092904",
    "neo_reference_id": "54092904",
    "name": "(2020 WT2)",
    "designation": "2020 WT2",
    "nasa_jpl_url": "http://ssd.jpl.nasa.gov/sbdb.cgi?sstr=54092904",
    "absolute_magnitude_h": 21.064,
    "estimated_diameter": {
        "kilometers": {
            "estimated_diameter_min": 0.1628377064,
            "estimated_diameter_max": 0.3641161808
        },
        "meters": {
            "estimated_diameter_min": 162.8377063912,
            "estimated_diameter_max": 364.1161807908
        },
        "miles": {
            "estimated_diameter_min": 0.1011826285,
            "estimated_diameter_max": 0.2262512354
        },
        "feet": {
            "estimated_diameter_min": 534.2444606364,
            "estimated_diameter_max": 1194.6069305858
        }
    },
    "is_potentially_hazardous_asteroid": true,
    "close_approach_data": [
        {
            "close_approach_date": "2010-04-24",
            "close_approach_date_full": "2010-Apr-24 13:20",
            "epoch_date_close_approach": 1272115200000,
            "relative_velocity": {
                "kilometers_per_second": "15.2994749155",
                "kilometers_per_hour": "55078.1096957485",
                "miles_per_hour": "34223.39543845"
            },
            "miss_distance": {
                "astronomical": "0.4475093758",
                "lunar": "174.0811471862",
                "kilometers": "66946449.424709546",
                "miles": "41598594.7200458948"
            },
            "orbiting_body": "Earth"
        },
        {
            "close_approach_date": "2018-05-09",
            "close_approach_date_full": "2018-May-09 23:42",
            "epoch_date_close_approach": 1525909320000,
            "relative_velocity": {
                "kilometers_per_second": "13.068547418",
                "kilometers_per_hour": "47046.7707047766",
                "miles_per_hour": "29233.0337193097"
            },
            "miss_distance": {
                "astronomical": "0.0565491524",
                "lunar": "21.9976202836",
                "kilometers": "8459632.749345388",
                "miles": "5256572.0399588344"
            },
            "orbiting_body": "Mars"
        },
        {
            "close_approach_date": "2020-12-08",
            "close_approach_date_full": "2020-Dec-08 07:29",
            "epoch_date_close_approach": 1607412540000,
            "relative_velocity": {
                "kilometers_per_second": "16.2002186246",
                "kilometers_per_hour": "58320.7870485506",
                "miles_per_hour": "36238.2690413619"
            },
            "miss_distance": {
                "astronomical": "0.1409727692",
                "lunar": "54.8384072188",
                "kilometers": "21089226.000321604",
                "miles": "13104237.3850379752"
            },
            "orbiting_body": "Earth"
        },
        {
            "close_approach_date": "2021-05-20",
            "close_approach_date_full": "2021-May-20 01:27",
            "epoch_date_close_approach": 1621474020000,
            "relative_velocity": {
                "kilometers_per_second": "12.0319639115",
                "kilometers_per_hour": "43315.0700814594",
                "miles_per_hour": "26914.3000736713"
            },
            "miss_distance": {
                "astronomical": "0.4337764284",
                "lunar": "168.7390306476",
                "kilometers": "64892029.744847508",
                "miles": "40322037.5257232904"
            },
            "orbiting_body": "Earth"
        },
        {
            "close_approach_date": "2066-04-26",
            "close_approach_date_full": "2066-Apr-26 06:38",
            "epoch_date_close_approach": 3039489480000,
            "relative_velocity": {
                "kilometers_per_second": "16.8653455969",
                "kilometers_per_hour": "60715.2441487079",
                "miles_per_hour": "37726.0915656235"
            },
            "miss_distance": {
                "astronomical": "0.4809691656",
                "lunar": "187.0970054184",
                "kilometers": "71951962.709437272",
                "miles": "44708876.4494954736"
            },
            "orbiting_body": "Earth"
        }
    ],
    "orbital_data": {
        "orbit_id": "8",
        "orbit_determination_date": "2020-12-05 10:16:13",
        "first_observation_date": "2020-11-20",
        "last_observation_date": "2020-12-05",
        "data_arc_in_days": 15,
        "observations_used": 84,
        "orbit_uncertainty": "8",
        "minimum_orbit_intersection": ".012879",
        "jupiter_tisserand_invariant": "4.763",
        "epoch_osculation": "2459179.5",
        "eccentricity": ".3065097832898451",
        "semi_major_axis": "1.34358638170718",
        "inclination": "23.03055132200874",
        "ascending_node_longitude": "263.2429091004587",
        "orbital_period": "568.8487613870601",
        "perihelion_distance": ".9317640110189249",
        "perihelion_argument": "224.2352357832715",
        "aphelion_distance": "1.755408752395435",
        "perihelion_time": "2459227.565294114807",
        "mean_anomaly": "329.5815354521678",
        "mean_motion": ".6328571396062973",
        "equinox": "J2000",
        "orbit_class": {
            "orbit_class_type": "APO",
            "orbit_class_description": "Near-Earth asteroid orbits which cross the Earth’s orbit similar to that of 1862 Apollo",
            "orbit_class_range": "a (semi-major axis) > 1.0 AU; q (perihelion) < 1.017 AU"
        }
    },
    "is_sentry_object": false
}